SL-16 R/B               
1 22566U 93016B   26024.18253247  .00000390  00000+0  22446-3 0  9998
2 22566  71.0087 308.6620 0009242  19.5481 340.5995 14.15297075695877
COSMOS 2242             
1 22626U 93024A   26024.23660357  .00003486  00000+0  30498-3 0  9999
2 22626  82.5208 309.2256 0018122  93.8449 266.4846 14.96335400773742
SL-16 R/B               
1 22803U 93059B   26024.22236559 -.00000103  00000+0 -27301-4 0  9991
2 22803  70.9907 104.9036 0019575 277.0330  82.8567 14.17223853673234
ARIANE 40 R/B           
1 22830U 93061H   26024.14636250  .00000557  00000+0  22001-3 0  9999
2 22830  98.5009  93.8922 0011602  60.0122 300.2213 14.32834701687726
COSMOS 2278             
1 23087U 94023A   26024.11222373  .00000016  00000+0  32958-4 0  9990
2 23087  71.0534 268.3623 0006340  98.5813 261.6028 14.14367196638508
SL-16 R/B               
1 23088U 94023B   26024.10822655 -.00000043  00000+0  23167-5 0  9993
2 23088  71.0000 164.5114 0004048 327.0987  32.9883 14.15007132639785
SL-16 R/B               
1 23343U 94074B   26024.29386193  .00000946  00000+0  13360-3 0  9998
2 23343  97.7164  56.8991 0006919  18.4732  73.2811 14.79349357680681
SL-16 R/B               
1 23405U 94077B   26024.24857888 -.00000044  00000+0  21675-5 0  9999
2 23405  70.9829  85.9874 0004837 251.8431 108.2165 14.15558929609948
ARIANE 40+ R/B          
1 23561U 95021B   26024.19984947  .00000660  00000+0  22470-3 0  9998
2 23561  98.4586  96.2649 0005612 275.3628 144.4410 14.39735866612843
SL-16 R/B               
1 23705U 95058B   26024.11202822 -.00000171  00000+0 -62857-4 0  9998
2 23705  71.0208 273.8461 0013170 197.9009 162.1652 14.15488951561545
SL-16 R/B               
1 24298U 96051B   26023.98184682  .00000106  00000+0  84291-4 0  9999
2 24298  70.7580 269.8718 0018534 209.0029 151.0062 14.12403221515330
ORBVIEW 2 (SEASTAR)     
1 24883U 97037A   26024.29591994  .00000660  00000+0  24588-3 0  9994
2 24883  98.8492 187.4507 0002299 166.5551 193.5695 14.35456461502105
