CCSDS_OMM_VERS = 2.0
CREATION_DATE  = 
ORIGINATOR     = 

OBJECT_NAME    = SL-16 R/B
OBJECT_ID      = 1993-016B
CENTER_NAME    = EARTH
REF_FRAME      = TEME
TIME_SYSTEM    = UTC
MEAN_ELEMENT_THEORY = SGP/SGP4

EPOCH          = 2026-01-24T04:22:50.805408
MEAN_MOTION    = 14.15297075
ECCENTRICITY   = .00092423
INCLINATION    = 71.0087
RA_OF_ASC_NODE = 308.6620
ARG_OF_PERICENTER = 19.5481
MEAN_ANOMALY   = 340.5995

EPHEMERIS_TYPE = 0
CLASSIFICATION_TYPE = U
NORAD_CAT_ID   = 22566
ELEMENT_SET_NO = 999
REV_AT_EPOCH   = 69587
BSTAR          = .22446255E-3
MEAN_MOTION_DOT = .39E-5
MEAN_MOTION_DDOT = 0

CCSDS_OMM_VERS = 2.0
CREATION_DATE  = 
ORIGINATOR     = 

OBJECT_NAME    = COSMOS 2242
OBJECT_ID      = 1993-024A
CENTER_NAME    = EARTH
REF_FRAME      = TEME
TIME_SYSTEM    = UTC
MEAN_ELEMENT_THEORY = SGP/SGP4

EPOCH          = 2026-01-24T05:40:42.548448
MEAN_MOTION    = 14.96335400
ECCENTRICITY   = .00181225
INCLINATION    = 82.5208
RA_OF_ASC_NODE = 309.2256
ARG_OF_PERICENTER = 93.8449
MEAN_ANOMALY   = 266.4846

EPHEMERIS_TYPE = 0
CLASSIFICATION_TYPE = U
NORAD_CAT_ID   = 22626
ELEMENT_SET_NO = 999
REV_AT_EPOCH   = 77374
BSTAR          = .30498057E-3
MEAN_MOTION_DOT = .3486E-4
MEAN_MOTION_DDOT = 0

CCSDS_OMM_VERS = 2.0
CREATION_DATE  = 
ORIGINATOR     = 

OBJECT_NAME    = SL-16 R/B
OBJECT_ID      = 1993-059B
CENTER_NAME    = EARTH
REF_FRAME      = TEME
TIME_SYSTEM    = UTC
MEAN_ELEMENT_THEORY = SGP/SGP4

EPOCH          = 2026-01-24T05:20:12.386976
MEAN_MOTION    = 14.17223853
ECCENTRICITY   = .00195754
INCLINATION    = 70.9907
RA_OF_ASC_NODE = 104.9036
ARG_OF_PERICENTER = 277.0330
MEAN_ANOMALY   = 82.8567

EPHEMERIS_TYPE = 0
CLASSIFICATION_TYPE = U
NORAD_CAT_ID   = 22803
ELEMENT_SET_NO = 999
REV_AT_EPOCH   = 67323
BSTAR          = -.27301112E-4
MEAN_MOTION_DOT = -.103E-5
MEAN_MOTION_DDOT = 0

CCSDS_OMM_VERS = 2.0
CREATION_DATE  = 
ORIGINATOR     = 

OBJECT_NAME    = ARIANE 40 R/B
OBJECT_ID      = 1993-061H
CENTER_NAME    = EARTH
REF_FRAME      = TEME
TIME_SYSTEM    = UTC
MEAN_ELEMENT_THEORY = SGP/SGP4

EPOCH          = 2026-01-24T03:30:45.720000
MEAN_MOTION    = 14.32834701
ECCENTRICITY   = .00116024
INCLINATION    = 98.5009
RA_OF_ASC_NODE = 93.8922
ARG_OF_PERICENTER = 60.0122
MEAN_ANOMALY   = 300.2213

EPHEMERIS_TYPE = 0
CLASSIFICATION_TYPE = U
NORAD_CAT_ID   = 22830
ELEMENT_SET_NO = 999
REV_AT_EPOCH   = 68772
BSTAR          = .22000881E-3
MEAN_MOTION_DOT = .557E-5
MEAN_MOTION_DDOT = 0

CCSDS_OMM_VERS = 2.0
CREATION_DATE  = 
ORIGINATOR     = 

OBJECT_NAME    = COSMOS 2278
OBJECT_ID      = 1994-023A
CENTER_NAME    = EARTH
REF_FRAME      = TEME
TIME_SYSTEM    = UTC
MEAN_ELEMENT_THEORY = SGP/SGP4

EPOCH          = 2026-01-24T02:41:36.130272
MEAN_MOTION    = 14.14367196
ECCENTRICITY   = .00063409
INCLINATION    = 71.0534
RA_OF_ASC_NODE = 268.3623
ARG_OF_PERICENTER = 98.5813
MEAN_ANOMALY   = 261.6028

EPHEMERIS_TYPE = 0
CLASSIFICATION_TYPE = U
NORAD_CAT_ID   = 23087
ELEMENT_SET_NO = 999
REV_AT_EPOCH   = 63850
BSTAR          = .32957542E-4
MEAN_MOTION_DOT = .16E-6
MEAN_MOTION_DDOT = 0

CCSDS_OMM_VERS = 2.0
CREATION_DATE  = 
ORIGINATOR     = 

OBJECT_NAME    = SL-16 R/B
OBJECT_ID      = 1994-023B
CENTER_NAME    = EARTH
REF_FRAME      = TEME
TIME_SYSTEM    = UTC
MEAN_ELEMENT_THEORY = SGP/SGP4

EPOCH          = 2026-01-24T02:35:50.773920
MEAN_MOTION    = 14.15007132
ECCENTRICITY   = .00040484
INCLINATION    = 71.0000
RA_OF_ASC_NODE = 164.5114
ARG_OF_PERICENTER = 327.0987
MEAN_ANOMALY   = 32.9883

EPHEMERIS_TYPE = 0
CLASSIFICATION_TYPE = U
NORAD_CAT_ID   = 23088
ELEMENT_SET_NO = 999
REV_AT_EPOCH   = 63978
BSTAR          = .2316655E-5
MEAN_MOTION_DOT = -.43E-6
MEAN_MOTION_DDOT = 0

CCSDS_OMM_VERS = 2.0
CREATION_DATE  = 
ORIGINATOR     = 

OBJECT_NAME    = SL-16 R/B
OBJECT_ID      = 1994-074B
CENTER_NAME    = EARTH
REF_FRAME      = TEME
TIME_SYSTEM    = UTC
MEAN_ELEMENT_THEORY = SGP/SGP4

EPOCH          = 2026-01-24T07:03:09.670752
MEAN_MOTION    = 14.79349357
ECCENTRICITY   = .00069197
INCLINATION    = 97.7164
RA_OF_ASC_NODE = 56.8991
ARG_OF_PERICENTER = 18.4732
MEAN_ANOMALY   = 73.2811

EPHEMERIS_TYPE = 0
CLASSIFICATION_TYPE = U
NORAD_CAT_ID   = 23343
ELEMENT_SET_NO = 999
REV_AT_EPOCH   = 68068
BSTAR          = .13359976E-3
MEAN_MOTION_DOT = .946E-5
MEAN_MOTION_DDOT = 0

CCSDS_OMM_VERS = 2.0
CREATION_DATE  = 
ORIGINATOR     = 

OBJECT_NAME    = SL-16 R/B
OBJECT_ID      = 1994-077B
CENTER_NAME    = EARTH
REF_FRAME      = TEME
TIME_SYSTEM    = UTC
MEAN_ELEMENT_THEORY = SGP/SGP4

EPOCH          = 2026-01-24T05:57:57.215232
MEAN_MOTION    = 14.15558929
ECCENTRICITY   = .00048371
INCLINATION    = 70.9829
RA_OF_ASC_NODE = 85.9874
ARG_OF_PERICENTER = 251.8431
MEAN_ANOMALY   = 108.2165

EPHEMERIS_TYPE = 0
CLASSIFICATION_TYPE = U
NORAD_CAT_ID   = 23405
ELEMENT_SET_NO = 999
REV_AT_EPOCH   = 60994
BSTAR          = .2167514E-5
MEAN_MOTION_DOT = -.44E-6
MEAN_MOTION_DDOT = 0

CCSDS_OMM_VERS = 2.0
CREATION_DATE  = 
ORIGINATOR     = 

OBJECT_NAME    = ARIANE 40+ R/B
OBJECT_ID      = 1995-021B
CENTER_NAME    = EARTH
REF_FRAME      = TEME
TIME_SYSTEM    = UTC
MEAN_ELEMENT_THEORY = SGP/SGP4

EPOCH          = 2026-01-24T04:47:46.994208
MEAN_MOTION    = 14.39735866
ECCENTRICITY   = .00056128
INCLINATION    = 98.4586
RA_OF_ASC_NODE = 96.2649
ARG_OF_PERICENTER = 275.3628
MEAN_ANOMALY   = 144.4410

EPHEMERIS_TYPE = 0
CLASSIFICATION_TYPE = U
NORAD_CAT_ID   = 23561
ELEMENT_SET_NO = 999
REV_AT_EPOCH   = 61284
BSTAR          = .22470389E-3
MEAN_MOTION_DOT = .66E-5
MEAN_MOTION_DDOT = 0

CCSDS_OMM_VERS = 2.0
CREATION_DATE  = 
ORIGINATOR     = 

OBJECT_NAME    = SL-16 R/B
OBJECT_ID      = 1995-058B
CENTER_NAME    = EARTH
REF_FRAME      = TEME
TIME_SYSTEM    = UTC
MEAN_ELEMENT_THEORY = SGP/SGP4

EPOCH          = 2026-01-24T02:41:19.238208
MEAN_MOTION    = 14.15488951
ECCENTRICITY   = .00131707
INCLINATION    = 71.0208
RA_OF_ASC_NODE = 273.8461
ARG_OF_PERICENTER = 197.9009
MEAN_ANOMALY   = 162.1652

EPHEMERIS_TYPE = 0
CLASSIFICATION_TYPE = U
NORAD_CAT_ID   = 23705
ELEMENT_SET_NO = 999
REV_AT_EPOCH   = 56154
BSTAR          = -.62857378E-4
MEAN_MOTION_DOT = -.171E-5
MEAN_MOTION_DDOT = 0

CCSDS_OMM_VERS = 2.0
CREATION_DATE  = 
ORIGINATOR     = 

OBJECT_NAME    = SL-16 R/B
OBJECT_ID      = 1996-051B
CENTER_NAME    = EARTH
REF_FRAME      = TEME
TIME_SYSTEM    = UTC
MEAN_ELEMENT_THEORY = SGP/SGP4

EPOCH          = 2026-01-23T23:33:51.565248
MEAN_MOTION    = 14.12403221
ECCENTRICITY   = .0018534
INCLINATION    = 70.7580
RA_OF_ASC_NODE = 269.8718
ARG_OF_PERICENTER = 209.0029
MEAN_ANOMALY   = 151.0062

EPHEMERIS_TYPE = 0
CLASSIFICATION_TYPE = U
NORAD_CAT_ID   = 24298
ELEMENT_SET_NO = 999
REV_AT_EPOCH   = 51533
BSTAR          = .84291E-4
MEAN_MOTION_DOT = .106E-5
MEAN_MOTION_DDOT = 0

CCSDS_OMM_VERS = 2.0
CREATION_DATE  = 
ORIGINATOR     = 

OBJECT_NAME    = ORBVIEW 2 (SEASTAR)
OBJECT_ID      = 1997-037A
CENTER_NAME    = EARTH
REF_FRAME      = TEME
TIME_SYSTEM    = UTC
MEAN_ELEMENT_THEORY = SGP/SGP4

EPOCH          = 2026-01-24T07:06:07.482816
MEAN_MOTION    = 14.35456461
ECCENTRICITY   = .0002299
INCLINATION    = 98.8492
RA_OF_ASC_NODE = 187.4507
ARG_OF_PERICENTER = 166.5551
MEAN_ANOMALY   = 193.5695

EPHEMERIS_TYPE = 0
CLASSIFICATION_TYPE = U
NORAD_CAT_ID   = 24883
ELEMENT_SET_NO = 999
REV_AT_EPOCH   = 50210
BSTAR          = .24587738E-3
MEAN_MOTION_DOT = .66E-5
MEAN_MOTION_DDOT = 0

